[
  {
    "COMMENT": "GENERATED VIA SPACETRACK.ORG API",
    "ORIGINATOR": "18 SPCS",
    "NORAD_CAT_ID": "46469",
    "OBJECT_NAME": "HAIYANG 2C",
    "OBJECT_TYPE": "PAYLOAD",
    "CLASSIFICATION_TYPE": "U",
    "INTLDES": "20066A",
    "EPOCH": "2023-08-09 02:19:27",
    "EPOCH_MICROSECONDS": "916896",
    "MEAN_MOTION": "13.83372933",
    "ECCENTRICITY": "0.0011782",
    "INCLINATION": "65.9965",
    "RA_OF_ASC_NODE": "292.3504",
    "ARG_OF_PERICENTER": "293.0924",
    "MEAN_ANOMALY": "66.8902",
    "EPHEMERIS_TYPE": "0",
    "ELEMENT_SET_NO": "999",
    "REV_AT_EPOCH": "14549",
    "BSTAR": "0.000074935",
    "MEAN_MOTION_DOT": "0.00000001",
    "MEAN_MOTION_DDOT": "0",
    "FILE": "3975483",
    "TLE_LINE0": "0 HAIYANG 2C",
    "TLE_LINE1": "1 46469U 20066A   23221.09685089  .00000001  00000-0  74935-4 0  9991",
    "TLE_LINE2": "2 46469  65.9965 292.3504 0011782 293.0924  66.8902 13.83372933145490",
    "OBJECT_ID": "2020-066A",
    "OBJECT_NUMBER": "46469",
    "SEMIMAJOR_AXIS": "7330.085",
    "PERIOD": "104.093",
    "APOGEE": "960.586",
    "PERIGEE": "943.313",
    "DECAYED": "0"
  },
  {
    "COMMENT": "GENERATED VIA SPACETRACK.ORG API",
    "ORIGINATOR": "18 SPCS",
    "NORAD_CAT_ID": "46469",
    "OBJECT_NAME": "HAIYANG 2C",
    "OBJECT_TYPE": "PAYLOAD",
    "CLASSIFICATION_TYPE": "U",
    "INTLDES": "20066A",
    "EPOCH": "2023-08-09 10:59:59",
    "EPOCH_MICROSECONDS": "276544",
    "MEAN_MOTION": "13.83372953",
    "ECCENTRICITY": "0.0011794",
    "INCLINATION": "65.9965",
    "RA_OF_ASC_NODE": "291.4505",
    "ARG_OF_PERICENTER": "293.0137",
    "MEAN_ANOMALY": "66.9687",
    "EPHEMERIS_TYPE": "0",
    "ELEMENT_SET_NO": "999",
    "REV_AT_EPOCH": "14554",
    "BSTAR": "0.000070879",
    "MEAN_MOTION_DOT": "-0.00000003",
    "MEAN_MOTION_DDOT": "0",
    "FILE": "3975772",
    "TLE_LINE0": "0 HAIYANG 2C",
    "TLE_LINE1": "1 46469U 20066A   23221.45832496 -.00000003  00000-0  70879-4 0  9993",
    "TLE_LINE2": "2 46469  65.9965 291.4505 0011794 293.0137  66.9687 13.83372953145549",
    "OBJECT_ID": "2020-066A",
    "OBJECT_NUMBER": "46469",
    "SEMIMAJOR_AXIS": "7330.085",
    "PERIOD": "104.093",
    "APOGEE": "960.595",
    "PERIGEE": "943.305",
    "DECAYED": "0"
  },
  {
    "COMMENT": "GENERATED VIA SPACETRACK.ORG API",
    "ORIGINATOR": "18 SPCS",
    "NORAD_CAT_ID": "46469",
    "OBJECT_NAME": "HAIYANG 2C",
    "OBJECT_TYPE": "PAYLOAD",
    "CLASSIFICATION_TYPE": "U",
    "INTLDES": "20066A",
    "EPOCH": "2023-08-09 17:56:24",
    "EPOCH_MICROSECONDS": "364608",
    "MEAN_MOTION": "13.83372963",
    "ECCENTRICITY": "0.0011807",
    "INCLINATION": "65.9964",
    "RA_OF_ASC_NODE": "290.7305",
    "ARG_OF_PERICENTER": "292.9906",
    "MEAN_ANOMALY": "66.9917",
    "EPHEMERIS_TYPE": "0",
    "ELEMENT_SET_NO": "999",
    "REV_AT_EPOCH": "14558",
    "BSTAR": "0.000063319",
    "MEAN_MOTION_DOT": "-0.00000012",
    "MEAN_MOTION_DDOT": "0",
    "FILE": "3976055",
    "TLE_LINE0": "0 HAIYANG 2C",
    "TLE_LINE1": "1 46469U 20066A   23221.74750422 -.00000012  00000-0  63319-4 0  9994",
    "TLE_LINE2": "2 46469  65.9964 290.7305 0011807 292.9906  66.9917 13.83372963145586",
    "OBJECT_ID": "2020-066A",
    "OBJECT_NUMBER": "46469",
    "SEMIMAJOR_AXIS": "7330.085",
    "PERIOD": "104.093",
    "APOGEE": "960.604",
    "PERIGEE": "943.295",
    "DECAYED": "0"
  },
  {
    "COMMENT": "GENERATED VIA SPACETRACK.ORG API",
    "ORIGINATOR": "18 SPCS",
    "NORAD_CAT_ID": "46469",
    "OBJECT_NAME": "HAIYANG 2C",
    "OBJECT_TYPE": "PAYLOAD",
    "CLASSIFICATION_TYPE": "U",
    "INTLDES": "20066A",
    "EPOCH": "2023-08-10 04:21:01",
    "EPOCH_MICROSECONDS": "993248",
    "MEAN_MOTION": "13.83373005",
    "ECCENTRICITY": "0.0011822",
    "INCLINATION": "65.9963",
    "RA_OF_ASC_NODE": "289.6505",
    "ARG_OF_PERICENTER": "292.9109",
    "MEAN_ANOMALY": "67.0711",
    "EPHEMERIS_TYPE": "0",
    "ELEMENT_SET_NO": "999",
    "REV_AT_EPOCH": "14564",
    "BSTAR": "0.000055167",
    "MEAN_MOTION_DOT": "-0.00000021",
    "MEAN_MOTION_DDOT": "0",
    "FILE": "3976432",
    "TLE_LINE0": "0 HAIYANG 2C",
    "TLE_LINE1": "1 46469U 20066A   23222.18127307 -.00000021  00000-0  55167-4 0  9995",
    "TLE_LINE2": "2 46469  65.9963 289.6505 0011822 292.9109  67.0711 13.83373005145645",
    "OBJECT_ID": "2020-066A",
    "OBJECT_NUMBER": "46469",
    "SEMIMAJOR_AXIS": "7330.084",
    "PERIOD": "104.093",
    "APOGEE": "960.615",
    "PERIGEE": "943.284",
    "DECAYED": "0"
  },
  {
    "COMMENT": "GENERATED VIA SPACETRACK.ORG API",
    "ORIGINATOR": "18 SPCS",
    "NORAD_CAT_ID": "46469",
    "OBJECT_NAME": "HAIYANG 2C",
    "OBJECT_TYPE": "PAYLOAD",
    "CLASSIFICATION_TYPE": "U",
    "INTLDES": "20066A",
    "EPOCH": "2023-08-10 11:17:27",
    "EPOCH_MICROSECONDS": "74400",
    "MEAN_MOTION": "13.83373061",
    "ECCENTRICITY": "0.0011838",
    "INCLINATION": "65.9963",
    "RA_OF_ASC_NODE": "288.9305",
    "ARG_OF_PERICENTER": "292.8405",
    "MEAN_ANOMALY": "67.1413",
    "EPHEMERIS_TYPE": "0",
    "ELEMENT_SET_NO": "999",
    "REV_AT_EPOCH": "14568",
    "BSTAR": "0.000062105",
    "MEAN_MOTION_DOT": "-0.00000013",
    "MEAN_MOTION_DDOT": "0",
    "FILE": "3976654",
    "TLE_LINE0": "0 HAIYANG 2C",
    "TLE_LINE1": "1 46469U 20066A   23222.47045225 -.00000013  00000-0  62105-4 0  9996",
    "TLE_LINE2": "2 46469  65.9963 288.9305 0011838 292.8405  67.1413 13.83373061145686",
    "OBJECT_ID": "2020-066A",
    "OBJECT_NUMBER": "46469",
    "SEMIMAJOR_AXIS": "7330.084",
    "PERIOD": "104.093",
    "APOGEE": "960.627",
    "PERIGEE": "943.272",
    "DECAYED": "0"
  },
  {
    "COMMENT": "GENERATED VIA SPACETRACK.ORG API",
    "ORIGINATOR": "18 SPCS",
    "NORAD_CAT_ID": "46469",
    "OBJECT_NAME": "HAIYANG 2C",
    "OBJECT_TYPE": "PAYLOAD",
    "CLASSIFICATION_TYPE": "U",
    "INTLDES": "20066A",
    "EPOCH": "2023-08-10 19:57:58",
    "EPOCH_MICROSECONDS": "429728",
    "MEAN_MOTION": "13.83373095",
    "ECCENTRICITY": "0.0011853",
    "INCLINATION": "65.9962",
    "RA_OF_ASC_NODE": "288.0305",
    "ARG_OF_PERICENTER": "292.8157",
    "MEAN_ANOMALY": "67.1659",
    "EPHEMERIS_TYPE": "0",
    "ELEMENT_SET_NO": "999",
    "REV_AT_EPOCH": "14573",
    "BSTAR": "0.000057903",
    "MEAN_MOTION_DOT": "-0.00000017",
    "MEAN_MOTION_DDOT": "0",
    "FILE": "3976967",
    "TLE_LINE0": "0 HAIYANG 2C",
    "TLE_LINE1": "1 46469U 20066A   23222.83192627 -.00000017  00000-0  57903-4 0  9999",
    "TLE_LINE2": "2 46469  65.9962 288.0305 0011853 292.8157  67.1659 13.83373095145732",
    "OBJECT_ID": "2020-066A",
    "OBJECT_NUMBER": "46469",
    "SEMIMAJOR_AXIS": "7330.084",
    "PERIOD": "104.093",
    "APOGEE": "960.637",
    "PERIGEE": "943.261",
    "DECAYED": "0"
  },
  {
    "COMMENT": "GENERATED VIA SPACETRACK.ORG API",
    "ORIGINATOR": "18 SPCS",
    "NORAD_CAT_ID": "46469",
    "OBJECT_NAME": "HAIYANG 2C",
    "OBJECT_TYPE": "PAYLOAD",
    "CLASSIFICATION_TYPE": "U",
    "INTLDES": "20066A",
    "EPOCH": "2023-08-11 02:54:23",
    "EPOCH_MICROSECONDS": "514336",
    "MEAN_MOTION": "13.83373136",
    "ECCENTRICITY": "0.0011861",
    "INCLINATION": "65.9961",
    "RA_OF_ASC_NODE": "287.3105",
    "ARG_OF_PERICENTER": "292.7551",
    "MEAN_ANOMALY": "67.2263",
    "EPHEMERIS_TYPE": "0",
    "ELEMENT_SET_NO": "999",
    "REV_AT_EPOCH": "14577",
    "BSTAR": "0.000058479",
    "MEAN_MOTION_DOT": "-0.00000017",
    "MEAN_MOTION_DDOT": "0",
    "FILE": "3977266",
    "TLE_LINE0": "0 HAIYANG 2C",
    "TLE_LINE1": "1 46469U 20066A   23223.12110549 -.00000017  00000-0  58479-4 0  9994",
    "TLE_LINE2": "2 46469  65.9961 287.3105 0011861 292.7551  67.2263 13.83373136145779",
    "OBJECT_ID": "2020-066A",
    "OBJECT_NUMBER": "46469",
    "SEMIMAJOR_AXIS": "7330.084",
    "PERIOD": "104.093",
    "APOGEE": "960.643",
    "PERIGEE": "943.255",
    "DECAYED": "0"
  },
  {
    "COMMENT": "GENERATED VIA SPACETRACK.ORG API",
    "ORIGINATOR": "18 SPCS",
    "NORAD_CAT_ID": "46469",
    "OBJECT_NAME": "HAIYANG 2C",
    "OBJECT_TYPE": "PAYLOAD",
    "CLASSIFICATION_TYPE": "U",
    "INTLDES": "20066A",
    "EPOCH": "2023-08-11 09:50:48",
    "EPOCH_MICROSECONDS": "592896",
    "MEAN_MOTION": "13.83373188",
    "ECCENTRICITY": "0.0011876",
    "INCLINATION": "65.9961",
    "RA_OF_ASC_NODE": "286.5905",
    "ARG_OF_PERICENTER": "292.6918",
    "MEAN_ANOMALY": "67.2894",
    "EPHEMERIS_TYPE": "0",
    "ELEMENT_SET_NO": "999",
    "REV_AT_EPOCH": "14581",
    "BSTAR": "0.000064602",
    "MEAN_MOTION_DOT": "-0.0000001",
    "MEAN_MOTION_DDOT": "0",
    "FILE": "3977573",
    "TLE_LINE0": "0 HAIYANG 2C",
    "TLE_LINE1": "1 46469U 20066A   23223.41028464 -.00000010  00000-0  64602-4 0  9998",
    "TLE_LINE2": "2 46469  65.9961 286.5905 0011876 292.6918  67.2894 13.83373188145812",
    "OBJECT_ID": "2020-066A",
    "OBJECT_NUMBER": "46469",
    "SEMIMAJOR_AXIS": "7330.084",
    "PERIOD": "104.093",
    "APOGEE": "960.654",
    "PERIGEE": "943.244",
    "DECAYED": "0"
  }
]